SL-4 R/B                
1 39679U 14021B   26007.94831506  .00010653  00000+0  25162-3 0  9996
2 39679  51.6065 273.1636 0099748 241.1290 117.9655 15.37376001646927
ALOS-2                  
1 39766U 14029A   26007.91695903  .00000504  00000+0  74403-4 0  9994
2 39766  97.9213 107.3892 0001399 100.4128 259.7241 14.79479919627883
YAOGAN-29               
1 41038U 15069A   26008.00051985 -.00000102  00000+0 -59373-5 0  9997
2 41038  98.0195  36.2533 0001853 138.2332 221.9023 14.82916011546884
ASTRO-H (HITOMI)        
1 41337U 16012A   26007.47979102  .00003193  00000+0  18829-3 0  9998
2 41337  31.0009  31.4085 0009563  77.6349 282.5359 15.09554865542972
HXMT (HUIYAN)           
1 42758U 17034A   26008.00647892  .00005987  00000+0  30843-3 0  9992
2 42758  43.0154 353.8321 0032931 212.9199 146.9598 15.16621268473320
CZ-2C R/B               
1 43521U 18054D   26007.37129372  .00138202  00000+0  68014-3 0  9999
2 43521  35.1338   6.3080 0010880  44.1956 315.9647 15.80673569419103
SAOCOM 1A               
1 43641U 18076A   26008.00099804  .00001764  00000+0  22802-3 0  9990
2 43641  97.8844 197.0412 0001336  82.6194 277.5171 14.82170137392375
H-2A R/B                
1 43682U 18084L   26007.52312117  .00018981  00000+0  49566-3 0  9990
2 43682  98.8761 211.9697 0025864 235.5041 124.3756 15.38531190396365
SAOCOM 1B               
1 46265U 20059A   26007.96469802  .00000963  00000+0  12745-3 0  9997
2 46265  97.8843 196.1049 0001488  83.1062 277.0321 14.82176425289758
CSS (TIANHE)            
1 48274U 21035A   26007.96709416  .00010176  00000+0  12467-3 0  9990
2 48274  41.4652 217.3492 0011171 241.5803 118.3910 15.60266689268122
COSMOS 2550             
1 48865U 21056A   26007.93949641 -.00000190  00000+0  55519-7 0  9997
2 48865  67.1434 224.6874 0008380 269.4603  90.5591 15.33823158254144
CZ-2C R/B               
1 52794U 22058K   26007.99385937  .00028064  00000+0  47642-3 0  9997
2 52794  50.1899 269.5115 0043461 306.0360  53.6586 15.50146008200708
