CCSDS_OMM_VERS = 2.0
CREATION_DATE  = 
ORIGINATOR     = 

OBJECT_NAME    = SL-4 R/B
OBJECT_ID      = 2014-021B
CENTER_NAME    = EARTH
REF_FRAME      = TEME
TIME_SYSTEM    = UTC
MEAN_ELEMENT_THEORY = SGP/SGP4

EPOCH          = 2026-01-07T22:45:34.421184
MEAN_MOTION    = 15.37376001
ECCENTRICITY   = .00997484
INCLINATION    = 51.6065
RA_OF_ASC_NODE = 273.1636
ARG_OF_PERICENTER = 241.1290
MEAN_ANOMALY   = 117.9655

EPHEMERIS_TYPE = 0
CLASSIFICATION_TYPE = U
NORAD_CAT_ID   = 39679
ELEMENT_SET_NO = 999
REV_AT_EPOCH   = 64692
BSTAR          = .25161722E-3
MEAN_MOTION_DOT = .10653E-3
MEAN_MOTION_DDOT = 0

CCSDS_OMM_VERS = 2.0
CREATION_DATE  = 
ORIGINATOR     = 

OBJECT_NAME    = ALOS-2
OBJECT_ID      = 2014-029A
CENTER_NAME    = EARTH
REF_FRAME      = TEME
TIME_SYSTEM    = UTC
MEAN_ELEMENT_THEORY = SGP/SGP4

EPOCH          = 2026-01-07T22:00:25.260192
MEAN_MOTION    = 14.79479919
ECCENTRICITY   = .00013994
INCLINATION    = 97.9213
RA_OF_ASC_NODE = 107.3892
ARG_OF_PERICENTER = 100.4128
MEAN_ANOMALY   = 259.7241

EPHEMERIS_TYPE = 0
CLASSIFICATION_TYPE = U
NORAD_CAT_ID   = 39766
ELEMENT_SET_NO = 999
REV_AT_EPOCH   = 62788
BSTAR          = .74403041E-4
MEAN_MOTION_DOT = .504E-5
MEAN_MOTION_DDOT = 0

CCSDS_OMM_VERS = 2.0
CREATION_DATE  = 
ORIGINATOR     = 

OBJECT_NAME    = YAOGAN-29
OBJECT_ID      = 2015-069A
CENTER_NAME    = EARTH
REF_FRAME      = TEME
TIME_SYSTEM    = UTC
MEAN_ELEMENT_THEORY = SGP/SGP4

EPOCH          = 2026-01-08T00:00:44.915040
MEAN_MOTION    = 14.82916011
ECCENTRICITY   = .00018539
INCLINATION    = 98.0195
RA_OF_ASC_NODE = 36.2533
ARG_OF_PERICENTER = 138.2332
MEAN_ANOMALY   = 221.9023

EPHEMERIS_TYPE = 0
CLASSIFICATION_TYPE = U
NORAD_CAT_ID   = 41038
ELEMENT_SET_NO = 999
REV_AT_EPOCH   = 54688
BSTAR          = -.593735E-5
MEAN_MOTION_DOT = -.102E-5
MEAN_MOTION_DDOT = 0

CCSDS_OMM_VERS = 2.0
CREATION_DATE  = 
ORIGINATOR     = 

OBJECT_NAME    = ASTRO-H (HITOMI)
OBJECT_ID      = 2016-012A
CENTER_NAME    = EARTH
REF_FRAME      = TEME
TIME_SYSTEM    = UTC
MEAN_ELEMENT_THEORY = SGP/SGP4

EPOCH          = 2026-01-07T11:30:53.944128
MEAN_MOTION    = 15.09554865
ECCENTRICITY   = .00095639
INCLINATION    = 31.0009
RA_OF_ASC_NODE = 31.4085
ARG_OF_PERICENTER = 77.6349
MEAN_ANOMALY   = 282.5359

EPHEMERIS_TYPE = 0
CLASSIFICATION_TYPE = U
NORAD_CAT_ID   = 41337
ELEMENT_SET_NO = 999
REV_AT_EPOCH   = 54297
BSTAR          = .18828753E-3
MEAN_MOTION_DOT = .3193E-4
MEAN_MOTION_DDOT = 0

CCSDS_OMM_VERS = 2.0
CREATION_DATE  = 
ORIGINATOR     = 

OBJECT_NAME    = HXMT (HUIYAN)
OBJECT_ID      = 2017-034A
CENTER_NAME    = EARTH
REF_FRAME      = TEME
TIME_SYSTEM    = UTC
MEAN_ELEMENT_THEORY = SGP/SGP4

EPOCH          = 2026-01-08T00:09:19.778688
MEAN_MOTION    = 15.16621268
ECCENTRICITY   = .00329319
INCLINATION    = 43.0154
RA_OF_ASC_NODE = 353.8321
ARG_OF_PERICENTER = 212.9199
MEAN_ANOMALY   = 146.9598

EPHEMERIS_TYPE = 0
CLASSIFICATION_TYPE = U
NORAD_CAT_ID   = 42758
ELEMENT_SET_NO = 999
REV_AT_EPOCH   = 47332
BSTAR          = .30843319E-3
MEAN_MOTION_DOT = .5987E-4
MEAN_MOTION_DDOT = 0

CCSDS_OMM_VERS = 2.0
CREATION_DATE  = 
ORIGINATOR     = 

OBJECT_NAME    = CZ-2C R/B
OBJECT_ID      = 2018-054D
CENTER_NAME    = EARTH
REF_FRAME      = TEME
TIME_SYSTEM    = UTC
MEAN_ELEMENT_THEORY = SGP/SGP4

EPOCH          = 2026-01-07T08:54:39.777408
MEAN_MOTION    = 15.80673569
ECCENTRICITY   = .00108801
INCLINATION    = 35.1338
RA_OF_ASC_NODE = 6.3080
ARG_OF_PERICENTER = 44.1956
MEAN_ANOMALY   = 315.9647

EPHEMERIS_TYPE = 0
CLASSIFICATION_TYPE = U
NORAD_CAT_ID   = 43521
ELEMENT_SET_NO = 999
REV_AT_EPOCH   = 41910
BSTAR          = .68013599E-3
MEAN_MOTION_DOT = .138202E-2
MEAN_MOTION_DDOT = 0

CCSDS_OMM_VERS = 2.0
CREATION_DATE  = 
ORIGINATOR     = 

OBJECT_NAME    = SAOCOM 1A
OBJECT_ID      = 2018-076A
CENTER_NAME    = EARTH
REF_FRAME      = TEME
TIME_SYSTEM    = UTC
MEAN_ELEMENT_THEORY = SGP/SGP4

EPOCH          = 2026-01-08T00:01:26.230656
MEAN_MOTION    = 14.82170137
ECCENTRICITY   = .00013363
INCLINATION    = 97.8844
RA_OF_ASC_NODE = 197.0412
ARG_OF_PERICENTER = 82.6194
MEAN_ANOMALY   = 277.5171

EPHEMERIS_TYPE = 0
CLASSIFICATION_TYPE = U
NORAD_CAT_ID   = 43641
ELEMENT_SET_NO = 999
REV_AT_EPOCH   = 39237
BSTAR          = .2280222E-3
MEAN_MOTION_DOT = .1764E-4
MEAN_MOTION_DDOT = 0

CCSDS_OMM_VERS = 2.0
CREATION_DATE  = 
ORIGINATOR     = 

OBJECT_NAME    = H-2A R/B
OBJECT_ID      = 2018-084L
CENTER_NAME    = EARTH
REF_FRAME      = TEME
TIME_SYSTEM    = UTC
MEAN_ELEMENT_THEORY = SGP/SGP4

EPOCH          = 2026-01-07T12:33:17.669088
MEAN_MOTION    = 15.38531190
ECCENTRICITY   = .00258648
INCLINATION    = 98.8761
RA_OF_ASC_NODE = 211.9697
ARG_OF_PERICENTER = 235.5041
MEAN_ANOMALY   = 124.3756

EPHEMERIS_TYPE = 0
CLASSIFICATION_TYPE = U
NORAD_CAT_ID   = 43682
ELEMENT_SET_NO = 999
REV_AT_EPOCH   = 39636
BSTAR          = .49565781E-3
MEAN_MOTION_DOT = .18981E-3
MEAN_MOTION_DDOT = 0

CCSDS_OMM_VERS = 2.0
CREATION_DATE  = 
ORIGINATOR     = 

OBJECT_NAME    = SAOCOM 1B
OBJECT_ID      = 2020-059A
CENTER_NAME    = EARTH
REF_FRAME      = TEME
TIME_SYSTEM    = UTC
MEAN_ELEMENT_THEORY = SGP/SGP4

EPOCH          = 2026-01-07T23:09:09.908928
MEAN_MOTION    = 14.82176425
ECCENTRICITY   = .00014886
INCLINATION    = 97.8843
RA_OF_ASC_NODE = 196.1049
ARG_OF_PERICENTER = 83.1062
MEAN_ANOMALY   = 277.0321

EPHEMERIS_TYPE = 0
CLASSIFICATION_TYPE = U
NORAD_CAT_ID   = 46265
ELEMENT_SET_NO = 999
REV_AT_EPOCH   = 28975
BSTAR          = .12745318E-3
MEAN_MOTION_DOT = .963E-5
MEAN_MOTION_DDOT = 0

CCSDS_OMM_VERS = 2.0
CREATION_DATE  = 
ORIGINATOR     = 

OBJECT_NAME    = CSS (TIANHE)
OBJECT_ID      = 2021-035A
CENTER_NAME    = EARTH
REF_FRAME      = TEME
TIME_SYSTEM    = UTC
MEAN_ELEMENT_THEORY = SGP/SGP4

EPOCH          = 2026-01-07T23:12:36.935424
MEAN_MOTION    = 15.60266689
ECCENTRICITY   = .00111719
INCLINATION    = 41.4652
RA_OF_ASC_NODE = 217.3492
ARG_OF_PERICENTER = 241.5803
MEAN_ANOMALY   = 118.3910

EPHEMERIS_TYPE = 0
CLASSIFICATION_TYPE = U
NORAD_CAT_ID   = 48274
ELEMENT_SET_NO = 999
REV_AT_EPOCH   = 26812
BSTAR          = .12466572E-3
MEAN_MOTION_DOT = .10176E-3
MEAN_MOTION_DDOT = 0

CCSDS_OMM_VERS = 2.0
CREATION_DATE  = 
ORIGINATOR     = 

OBJECT_NAME    = COSMOS 2550
OBJECT_ID      = 2021-056A
CENTER_NAME    = EARTH
REF_FRAME      = TEME
TIME_SYSTEM    = UTC
MEAN_ELEMENT_THEORY = SGP/SGP4

EPOCH          = 2026-01-07T22:32:52.489824
MEAN_MOTION    = 15.33823158
ECCENTRICITY   = .00083809
INCLINATION    = 67.1434
RA_OF_ASC_NODE = 224.6874
ARG_OF_PERICENTER = 269.4603
MEAN_ANOMALY   = 90.5591

EPHEMERIS_TYPE = 0
CLASSIFICATION_TYPE = U
NORAD_CAT_ID   = 48865
ELEMENT_SET_NO = 999
REV_AT_EPOCH   = 25414
BSTAR          = .55519E-7
MEAN_MOTION_DOT = -.19E-5
MEAN_MOTION_DDOT = 0

CCSDS_OMM_VERS = 2.0
CREATION_DATE  = 
ORIGINATOR     = 

OBJECT_NAME    = CZ-2C R/B
OBJECT_ID      = 2022-058K
CENTER_NAME    = EARTH
REF_FRAME      = TEME
TIME_SYSTEM    = UTC
MEAN_ELEMENT_THEORY = SGP/SGP4

EPOCH          = 2026-01-07T23:51:09.449568
MEAN_MOTION    = 15.50146008
ECCENTRICITY   = .00434612
INCLINATION    = 50.1899
RA_OF_ASC_NODE = 269.5115
ARG_OF_PERICENTER = 306.0360
MEAN_ANOMALY   = 53.6586

EPHEMERIS_TYPE = 0
CLASSIFICATION_TYPE = U
NORAD_CAT_ID   = 52794
ELEMENT_SET_NO = 999
REV_AT_EPOCH   = 20070
BSTAR          = .47642248E-3
MEAN_MOTION_DOT = .28064E-3
MEAN_MOTION_DDOT = 0

